{
  "type": "FeatureCollection",
  "features": [
    {
      "type": "Feature",
      "properties": {
        "norad_id": 19071,
        "name": "OSCAR 32",
        "group": "nnss",
        "lat": 64.70572717058123,
        "lon": -162.91271433788003,
        "alt_km": 1080.1693984489466,
        "timestamp": "2025-12-08T21:31:04.936413+00:00",
        "meta_object_name": "OSCAR 32",
        "meta_object_id": "1988-033B",
        "meta_epoch": "2025-12-08T14:32:51.067968",
        "meta_mean_motion": 13.27953278,
        "meta_eccentricity": 0.01880198,
        "meta_inclination": 90.3221,
        "meta_ra_of_asc_node": 16.3962,
        "meta_arg_of_pericenter": 178.2728,
        "meta_mean_anomaly": 351.1984,
        "meta_ephemeris_type": 0,
        "meta_classification_type": "U",
        "meta_norad_cat_id": 19071,
        "meta_element_set_no": 999,
        "meta_rev_at_epoch": 82210,
        "meta_bstar": 0.00020525138,
        "meta_mean_motion_dot": 1.11e-06,
        "meta_mean_motion_ddot": 0,
        "tle_line1": "1 19071U 88033B   25342.60614662  .00000111  00000+0  20525-3 0  9996",
        "tle_line2": "2 19071  90.3221  16.3962 0188019 178.2728 351.1984 13.27953278822107"
      },
      "geometry": {
        "type": "Point",
        "coordinates": [
          -162.91271433788003,
          64.70572717058123
        ]
      }
    },
    {
      "type": "Feature",
      "properties": {
        "norad_id": 19223,
        "name": "NOVA 2",
        "group": "nnss",
        "lat": 23.573559523221594,
        "lon": 78.28275971562174,
        "alt_km": 1149.6637575264876,
        "timestamp": "2025-12-08T21:31:04.936424+00:00",
        "meta_object_name": "NOVA 2",
        "meta_object_id": "1988-052A",
        "meta_epoch": "2025-12-08T12:22:43.482720",
        "meta_mean_motion": 13.2293522,
        "meta_eccentricity": 0.00309392,
        "meta_inclination": 89.9871,
        "meta_ra_of_asc_node": 78.2776,
        "meta_arg_of_pericenter": 28.3624,
        "meta_mean_anomaly": 342.7798,
        "meta_ephemeris_type": 0,
        "meta_classification_type": "U",
        "meta_norad_cat_id": 19223,
        "meta_element_set_no": 999,
        "meta_rev_at_epoch": 80892,
        "meta_bstar": 0.00027271037,
        "meta_mean_motion_dot": 1.24e-06,
        "meta_mean_motion_ddot": 0,
        "tle_line1": "1 19223U 88052A   25342.51578105  .00000124  00000+0  27271-3 0  9996",
        "tle_line2": "2 19223  89.9871  78.2776 0030939  28.3624 342.7798 13.22935220808923"
      },
      "geometry": {
        "type": "Point",
        "coordinates": [
          78.28275971562174,
          23.573559523221594
        ]
      }
    },
    {
      "type": "Feature",
      "properties": {
        "norad_id": 19419,
        "name": "OSCAR 25",
        "group": "nnss",
        "lat": -6.985008453714585,
        "lon": -159.7727694719614,
        "alt_km": 1078.7919725798656,
        "timestamp": "2025-12-08T21:31:04.936456+00:00",
        "meta_object_name": "OSCAR 25",
        "meta_object_id": "1988-074A",
        "meta_epoch": "2025-12-08T15:51:37.814976",
        "meta_mean_motion": 13.42622325,
        "meta_eccentricity": 0.00943024,
        "meta_inclination": 90.035,
        "meta_ra_of_asc_node": 20.2307,
        "meta_arg_of_pericenter": 257.6847,
        "meta_mean_anomaly": 231.482,
        "meta_ephemeris_type": 0,
        "meta_classification_type": "U",
        "meta_norad_cat_id": 19419,
        "meta_element_set_no": 999,
        "meta_rev_at_epoch": 82585,
        "meta_bstar": 0.00027332453,
        "meta_mean_motion_dot": 1.67e-06,
        "meta_mean_motion_ddot": 0,
        "tle_line1": "1 19419U 88074A   25342.66085434  .00000167  00000+0  27332-3 0  9996",
        "tle_line2": "2 19419  90.0350  20.2307 0094302 257.6847 231.4820 13.42622325825852"
      },
      "geometry": {
        "type": "Point",
        "coordinates": [
          -159.7727694719614,
          -6.985008453714585
        ]
      }
    },
    {
      "type": "Feature",
      "properties": {
        "norad_id": 19420,
        "name": "OSCAR 31",
        "group": "nnss",
        "lat": 72.13695368819326,
        "lon": 20.466910787727713,
        "alt_km": 1162.0508999105868,
        "timestamp": "2025-12-08T21:31:04.936472+00:00",
        "meta_object_name": "OSCAR 31",
        "meta_object_id": "1988-074B",
        "meta_epoch": "2025-12-08T14:35:18.328992",
        "meta_mean_motion": 13.42583722,
        "meta_eccentricity": 0.00925691,
        "meta_inclination": 90.0367,
        "meta_ra_of_asc_node": 20.5798,
        "meta_arg_of_pericenter": 251.9374,
        "meta_mean_anomaly": 225.5371,
        "meta_ephemeris_type": 0,
        "meta_classification_type": "U",
        "meta_norad_cat_id": 19420,
        "meta_element_set_no": 999,
        "meta_rev_at_epoch": 82595,
        "meta_bstar": 0.00022211833,
        "meta_mean_motion_dot": 1.37e-06,
        "meta_mean_motion_ddot": 0,
        "tle_line1": "1 19420U 88074B   25342.60785103  .00000137  00000+0  22212-3 0  9991",
        "tle_line2": "2 19420  90.0367  20.5798 0092569 251.9374 225.5371 13.42583722825957"
      },
      "geometry": {
        "type": "Point",
        "coordinates": [
          20.466910787727713,
          72.13695368819326
        ]
      }
    }
  ]
}